#aV2009  2 23  0  0   .00000000      96 DD+AD WGS84 FIT  NGA
## 1520  86400.00000000   900.00000000 54885  .0000000000000
+   31     2  3  4  5  6  7  8  9 10 11 12 13 14 15 16 17 18
+         19 20 21 22 23 24 25 26 27 28 29 30 31 32  0  0  0
+          0  0  0  0  0  0  0  0  0  0  0  0  0  0  0  0  0
+          0  0  0  0  0  0  0  0  0  0  0  0  0  0  0  0  0
+          0  0  0  0  0  0  0  0  0  0  0  0  0  0  0  0  0
++         0  0  0  0  0  0  0  0  0  0  0  0  0  0  0  0  0
++         0  0  0  0  0  0  0  0  0  0  0  0  0  0  0  0  0
++         0  0  0  0  0  0  0  0  0  0  0  0  0  0  0  0  0
++         0  0  0  0  0  0  0  0  0  0  0  0  0  0  0  0  0
++         0  0  0  0  0  0  0  0  0  0  0  0  0  0  0  0  0
%c cc cc ccc ccc cccc cccc cccc cccc ccccc ccccc ccccc ccccc
%c cc cc ccc ccc cccc cccc cccc cccc ccccc ccccc ccccc ccccc
%f  0.0000000  0.000000000  0.00000000000  0.000000000000000
%f  0.0000000  0.000000000  0.00000000000  0.000000000000000
%i    0    0    0    0      0      0      0      0         0
%i    0    0    0    0      0      0      0      0         0
/*      NGA, ST. LOUIS,MO.                                  
/*   EPHEMERIS COMPUTED FROM  3 DAYS OF DATA                
/* CCCCCCCCCCCCCCCCCCCCCCCCCCCCCCCCCCCCCCCCCCCCCCCCCCCCCCCCC
/* CCCCCCCCCCCCCCCCCCCCCCCCCCCCCCCCCCCCCCCCCCCCCCCCCCCCCCCCC
*  2009  2 23 17 45   .00000000                                                 
P  2  21110.891056 -13282.069894   8409.713142    156.482856                    
V  2  11531.870381    -57.702623 -29028.590621      -.010884                    
P  3 -10402.910293  21681.240482  10577.702580    357.009773                    
V  3  -2138.916457 -14391.301882  26994.090638       .050506                    
P  4  26029.525104  -4875.758592  -3982.292519   -347.538166                    
V  4  -3757.222973   4347.053597 -30528.247878      -.141212                    
P  5 -11654.049687 -20440.968244 -12734.520170      -.970089                    
V  5  14004.437542   7507.602185 -25340.570548      -.023097                    
P  6 -13823.081966  17863.338276  14137.007175     45.092308                    
V  6    453.096658 -17919.185482  23431.831789      -.152702                    
P  7  15282.985953   9431.057560  19588.311379     22.376302                    
V  7 -23403.718213   8455.933539  14068.984261      -.003244                    
P  8  24654.574358    975.955903  10413.939271   -191.904118                    
V  8 -12384.630970   4503.809374  28267.034701      -.016567                    
P  9   2333.492869 -16259.371700 -21496.828325     42.045829                    
V  9  24549.366300  -7929.504800   9038.014290       .020172                    
P 10   8423.871198 -12823.387837  21499.173588    -11.616403                    
V 10  20210.426753  18956.423411   3697.595917      -.005662                    
P 11   1033.566651  17805.581612 -19804.133255      6.608466                    
V 11 -22727.253107  10830.610664   8994.796221      -.012719                    
P 12  -8233.385622 -20974.531988 -14072.341641   -313.014583                    
V 12  14470.682989  10793.158041 -24315.036744       .039749                    
P 13   7069.547392  18008.967912  18083.045797    289.535808                    
V 13  -7305.698546  21963.809169 -18880.209801       .012418                    
P 14 -15191.792939   2007.479387 -21557.067668   -150.013342                    
V 14   6574.673503 -26808.480321  -7193.314732       .054217                    
P 15   6519.581549 -25674.094069   1506.323486   -260.673607                    
V 15   2521.888914   2458.037075  31633.953511      -.050958                    
P 16 -13867.739691   7247.453221  21553.397848     72.431156                    
V 16 -19295.044488 -19124.390855  -5777.920640      -.028592                    
P 17  15347.117005    834.572433 -21591.831915     47.997944                    
V 17  -6123.581667  26881.681410  -3489.594809       .012391                    
P 18 -20542.358559 -16763.077042  -3405.188299    -80.630054                    
V 18  -1112.434055  -5348.654048  30739.702344       .035687                    
P 19  -6724.464466  25519.425343  -1382.849950     31.878729                    
V 19  -3518.069884    861.559251  31780.642621      -.006774                    
P 20  10600.181663  21180.284334 -12195.357948     89.947016                    
V 20 -13270.324618  -8103.416062 -25827.966118      -.010593                    
P 21 -19602.874542  -7354.826316  16919.040592     27.604194                    
V 21  19563.512942  -7550.545073  19031.064713      -.018452                    
P 22 -21584.023622  -7959.826499 -13171.963991    204.575860                    
V 22 -10127.750444 -13922.494654  24658.631995      -.006351                    
P 23   1398.403320  24389.917563  10031.265304    387.458230                    
V 23  -5275.627126  12003.656145 -28574.927501       .005935                    
P 24  -4451.311301 -14848.090353  21696.473528    167.938195                    
V 24  26373.778912  -6957.312134    917.913842       .030801                    
P 25   8184.713324  12992.367608  22015.657525    261.226960                    
V 25 -24876.443826  10744.277346   3145.121755       .241983                    
P 26  10695.853976 -23044.651877   6200.321263     46.706703                    
V 26   -202.005278   8927.585722  31500.536356       .027160                    
P 27  24641.996527  -9927.456554   -888.538506     27.087108                    
V 27   2655.130590   1549.826740  31943.939444       .031297                    
P 28  21679.735399  10432.599769 -11183.314076    -23.605859                    
V 28   9002.222147  11847.936859  27150.820581       .000067                    
P 29  -7450.703107 -19114.743046  16993.697104     -7.347160                    
V 29   6886.276361 -20298.613040 -19899.930955       .034739                    
P 30 -17716.865145 -19383.956898  -4625.970729    128.294043                    
V 30   6039.449081   1266.537271 -30760.700112       .024142                    
P 31 -25616.093497   7137.093992  -1255.905724    -52.611824                    
V 31   1048.490927  -2825.329653 -31846.342325      -.013124                    
P 32   2453.655624  20083.296888 -16925.218386    292.689461                    
V 32 -16163.392762 -15273.771826 -19758.496506      -.035721                    
EOF
